[{"OBJECT_NAME":"STARLINK-2717","OBJECT_ID":"2021-044X","EPOCH":"2026-03-09T12:49:26.292576","MEAN_MOTION":15.30209793,"ECCENTRICITY":0.0001526,"INCLINATION":53.1579,"RA_OF_ASC_NODE":114.5637,"ARG_OF_PERICENTER":77.6748,"MEAN_ANOMALY":282.4423,"EPHEMERIS_TYPE":0,"CLASSIFICATION_TYPE":"U","NORAD_CAT_ID":48659,"ELEMENT_SET_NO":999,"REV_AT_EPOCH":26380,"BSTAR":9.5677639e-5,"MEAN_MOTION_DOT":2.476e-5,"MEAN_MOTION_DDOT":0},{"OBJECT_NAME":"POEM","OBJECT_ID":"2022-072E","EPOCH":"2026-03-08T08:06:01.299456","MEAN_MOTION":15.22764653,"ECCENTRICITY":0.00236837,"INCLINATION":9.9515,"RA_OF_ASC_NODE":116.6548,"ARG_OF_PERICENTER":142.2805,"MEAN_ANOMALY":217.9074,"EPHEMERIS_TYPE":0,"CLASSIFICATION_TYPE":"U","NORAD_CAT_ID":52939,"ELEMENT_SET_NO":999,"REV_AT_EPOCH":20410,"BSTAR":0.00045784559,"MEAN_MOTION_DOT":0.00012084,"MEAN_MOTION_DDOT":0}]
